[{"OBJECT_NAME":"STARLINK-4570","OBJECT_ID":"2022-105AU","EPOCH":"2026-03-09T16:11:26.072448","MEAN_MOTION":15.01260045,"ECCENTRICITY":0.00034422,"INCLINATION":97.6023,"RA_OF_ASC_NODE":310.1465,"ARG_OF_PERICENTER":48.0412,"MEAN_ANOMALY":312.1105,"EPHEMERIS_TYPE":0,"CLASSIFICATION_TYPE":"U","NORAD_CAT_ID":53690,"ELEMENT_SET_NO":999,"REV_AT_EPOCH":19323,"BSTAR":2.549325e-6,"MEAN_MOTION_DOT":-2.6e-7,"MEAN_MOTION_DDOT":0},{"OBJECT_NAME":"CZ-6A DEB","OBJECT_ID":"2022-151PZ","EPOCH":"2026-03-09T15:54:05.043168","MEAN_MOTION":14.93335269,"ECCENTRICITY":0.00656982,"INCLINATION":98.627,"RA_OF_ASC_NODE":159.0323,"ARG_OF_PERICENTER":132.4095,"MEAN_ANOMALY":228.2707,"EPHEMERIS_TYPE":0,"CLASSIFICATION_TYPE":"U","NORAD_CAT_ID":54888,"ELEMENT_SET_NO":999,"REV_AT_EPOCH":17691,"BSTAR":0.0034425771,"MEAN_MOTION_DOT":0.00037754,"MEAN_MOTION_DDOT":0}]
